IRIDIUM 112             
1 41925U 17003J   25208.77970227 -.00000011  00000+0 -10975-4 0  9999
2 41925  86.3953 223.8024 0002274  89.9627 270.1829 14.34217428446777
IRIDIUM 111             
1 41926U 17003K   25208.76701412  .00000018  00000+0 -80828-6 0  9999
2 41926  86.3954 223.8710 0002020  90.8422 269.3005 14.34217213446750
IRIDIUM 113             
1 42803U 17039A   25208.74698203 -.00000040  00000+0 -21299-4 0  9995
2 42803  86.3956  97.8095 0002229  80.5396 279.6052 14.34217226424687
IRIDIUM 123             
1 42804U 17039B   25208.85822591 -.00000127  00000+0 -52413-4 0  9995
2 42804  86.3999 129.2364 0001877  82.1966 277.9443 14.34218162423463
IRIDIUM 120             
1 42805U 17039C   25208.81040687 -.00000007  00000+0 -95809-5 0  9994
2 42805  86.3944  97.6074 0001866  92.0982 268.0427 14.34217441424683
IRIDIUM 115             
1 42806U 17039D   25208.71957332  .00000156  00000+0  40369-4 0  9991
2 42806  86.4479  97.7301 0001496  81.4864 278.6507 14.43281220427463
IRIDIUM 118             
1 42807U 17039E   25208.82017313  .00000031  00000+0  41053-5 0  9994
2 42807  86.4000 129.2524 0002328  80.6068 279.5391 14.34217759423456
IRIDIUM 117             
1 42808U 17039F   25209.18804313  .00000041  00000+0  74042-5 0  9994
2 42808  86.3997 129.0594 0002029  80.0434 280.0990 14.34217641423547
